start=new Date('2022-06-23T00:00:00.000Z').valueOf();
sats=[{"COUNTRY_CODE":"US","PERIAPSIS":"482.162","EPOCH":"2022-06-22T22:00:00.999936","MEAN_ELEMENT_THEORY":"SGP4","MEAN_MOTION_DOT":"-0.00841291","APOAPSIS":"483.905","REF_FRAME":"TEME","ELEMENT_SET_NO":"999","MEAN_ANOMALY":"31.3150","BSTAR":"-0.03336800000000","RA_OF_ASC_NODE":"251.0182","MEAN_MOTION":"15.27585792","CENTER_NAME":"EARTH","OBJECT_NAME":"STARLINK-4008","RCS_SIZE":"LARGE","ARG_OF_PERICENTER":"68.1463","LAUNCH_DATE":"2022-05-14","CLASSIFICATION_TYPE":"U","FILE":"3500001","ECCENTRICITY":"0.00012700","PERIOD":"94.266","INCLINATION":"53.2174","OBJECT_ID":"2022-052AA","DECAY_DATE":null,"SEMIMAJOR_AXIS":"6861.169","REV_AT_EPOCH":"130","SITE":"AFETR","OBJECT_TYPE":"PAYLOAD","NORAD_CAT_ID":"52622","MEAN_MOTION_DDOT":"0.0000000000000","TIME_SYSTEM":"UTC","EPHEMERIS_TYPE":"0","GP_ID":"206651268","TLE_LINE2":"2 52622  53.2174 251.0182 0001270  68.1463  31.3150 15.27585792  1306","TLE_LINE1":"1 52622U 22052AA  22173.91667824 -.00841291  00000-0 -33368-1 0  9997"},{"BSTAR":"-0.00060079000000","RA_OF_ASC_NODE":"246.1951","MEAN_ANOMALY":"211.1445","ELEMENT_SET_NO":"999","REF_FRAME":"TEME","APOAPSIS":"351.268","MEAN_MOTION_DOT":"-0.00084238","MEAN_ELEMENT_THEORY":"SGP4","EPOCH":"2022-06-22T22:00:00.999936","PERIAPSIS":"348.052","COUNTRY_CODE":"US","INCLINATION":"53.2150","PERIOD":"91.531","ECCENTRICITY":"0.00023900","FILE":"3500001","CLASSIFICATION_TYPE":"U","LAUNCH_DATE":"2022-05-14","ARG_OF_PERICENTER":"24.4566","RCS_SIZE":"LARGE","OBJECT_NAME":"STARLINK-3986","MEAN_MOTION":"15.73235019","CENTER_NAME":"EARTH","SITE":"AFETR","REV_AT_EPOCH":"130","SEMIMAJOR_AXIS":"6727.795","DECAY_DATE":null,"OBJECT_ID":"2022-052AB","TLE_LINE1":"1 52623U 22052AB  22173.91667824 -.00084238  00000-0 -60079-3 0  9999","TLE_LINE2":"2 52623  53.2150 246.1951 0002390  24.4566 211.1445 15.73235019  1303","GP_ID":"206651826","EPHEMERIS_TYPE":"0","TIME_SYSTEM":"UTC","MEAN_MOTION_DDOT":"0.0000000000000","NORAD_CAT_ID":"52623","OBJECT_TYPE":"PAYLOAD"},{"INCLINATION":"53.2143","PERIOD":"91.530","FILE":"3500001","CLASSIFICATION_TYPE":"U","ECCENTRICITY":"0.00023860","ARG_OF_PERICENTER":"23.1381","LAUNCH_DATE":"2022-05-14","MEAN_MOTION":"15.73254629","CENTER_NAME":"EARTH","OBJECT_NAME":"STARLINK-4009","RCS_SIZE":"LARGE","MEAN_ANOMALY":"210.0566","ELEMENT_SET_NO":"999","REF_FRAME":"TEME","BSTAR":"-0.00054788000000","RA_OF_ASC_NODE":"246.2009","MEAN_MOTION_DOT":"-0.00077004","APOAPSIS":"351.210","EPOCH":"2022-06-22T22:00:00.999936","COUNTRY_CODE":"US","PERIAPSIS":"347.999","MEAN_ELEMENT_THEORY":"SGP4","TLE_LINE2":"2 52624  53.2143 246.2009 0002386  23.1381 210.0566 15.73254629  1307","TLE_LINE1":"1 52624U 22052AC  22173.91667824 -.00077004  00000-0 -54788-3 0  9993","TIME_SYSTEM":"UTC","EPHEMERIS_TYPE":"0","GP_ID":"206651721","MEAN_MOTION_DDOT":"0.0000000000000","OBJECT_TYPE":"PAYLOAD","NORAD_CAT_ID":"52624","SITE":"AFETR","REV_AT_EPOCH":"130","OBJECT_ID":"2022-052AC","SEMIMAJOR_AXIS":"6727.739","DECAY_DATE":null},{"MEAN_MOTION_DDOT":"0.0000000000000","NORAD_CAT_ID":"52625","OBJECT_TYPE":"PAYLOAD","TLE_LINE1":"1 52625U 22052AD  22173.91667824  .00022583  00000-0  16484-3 0  9995","TLE_LINE2":"2 52625  53.2147 246.1935 0002219  13.8452 222.3359 15.73206710  1303","EPHEMERIS_TYPE":"0","GP_ID":"206651932","TIME_SYSTEM":"UTC","REV_AT_EPOCH":"130","SEMIMAJOR_AXIS":"6727.876","DECAY_DATE":null,"OBJECT_ID":"2022-052AD","SITE":"AFETR","LAUNCH_DATE":"2022-05-14","ARG_OF_PERICENTER":"13.8452","OBJECT_NAME":"STARLINK-3988","RCS_SIZE":"LARGE","MEAN_MOTION":"15.73206710","CENTER_NAME":"EARTH","INCLINATION":"53.2147","PERIOD":"91.533","ECCENTRICITY":"0.00022190","FILE":"3500001","CLASSIFICATION_TYPE":"U","APOAPSIS":"351.234","MEAN_MOTION_DOT":"0.00022583","MEAN_ELEMENT_THEORY":"SGP4","EPOCH":"2022-06-22T22:00:00.999936","PERIAPSIS":"348.248","COUNTRY_CODE":"US","BSTAR":"0.00016484000000","RA_OF_ASC_NODE":"246.1935","MEAN_ANOMALY":"222.3359","ELEMENT_SET_NO":"999","REF_FRAME":"TEME"},{"ELEMENT_SET_NO":"999","REF_FRAME":"TEME","MEAN_ANOMALY":"216.4766","BSTAR":"0.00018749000000","RA_OF_ASC_NODE":"246.1995","COUNTRY_CODE":"US","PERIAPSIS":"348.075","EPOCH":"2022-06-22T22:00:00.999936","MEAN_ELEMENT_THEORY":"SGP4","MEAN_MOTION_DOT":"0.00025791","APOAPSIS":"351.363","FILE":"3500001","CLASSIFICATION_TYPE":"U","ECCENTRICITY":"0.00024430","PERIOD":"91.532","INCLINATION":"53.2132","MEAN_MOTION":"15.73214432","CENTER_NAME":"EARTH","RCS_SIZE":"LARGE","OBJECT_NAME":"STARLINK-3990","ARG_OF_PERICENTER":"17.3161","LAUNCH_DATE":"2022-05-14","SITE":"AFETR","OBJECT_ID":"2022-052AE","SEMIMAJOR_AXIS":"6727.854","DECAY_DATE":null,"REV_AT_EPOCH":"130","TIME_SYSTEM":"UTC","EPHEMERIS_TYPE":"0","GP_ID":"206651616","TLE_LINE2":"2 52626  53.2132 246.1995 0002443  17.3161 216.4766 15.73214432  1305","TLE_LINE1":"1 52626U 22052AE  22173.91667824  .00025791  00000-0  18749-3 0  9996","OBJECT_TYPE":"PAYLOAD","NORAD_CAT_ID":"52626","MEAN_MOTION_DDOT":"0.0000000000000"},{"RA_OF_ASC_NODE":"246.1902","BSTAR":"0.00016191000000","ELEMENT_SET_NO":"999","REF_FRAME":"TEME","MEAN_ANOMALY":"212.9767","MEAN_ELEMENT_THEORY":"SGP4","COUNTRY_CODE":"US","PERIAPSIS":"348.122","EPOCH":"2022-06-22T22:00:00.999936","APOAPSIS":"351.350","MEAN_MOTION_DOT":"0.00022172","ECCENTRICITY":"0.00023990","CLASSIFICATION_TYPE":"U","FILE":"3500001","PERIOD":"91.533","INCLINATION":"53.2149","RCS_SIZE":"LARGE","OBJECT_NAME":"STARLINK-3992","MEAN_MOTION":"15.73208328","CENTER_NAME":"EARTH","LAUNCH_DATE":"2022-05-14","ARG_OF_PERICENTER":"24.9322","SITE":"AFETR","DECAY_DATE":null,"SEMIMAJOR_AXIS":"6727.871","OBJECT_ID":"2022-052AF","REV_AT_EPOCH":"130","EPHEMERIS_TYPE":"0","GP_ID":"206651479","TIME_SYSTEM":"UTC","TLE_LINE1":"1 52627U 22052AF  22173.91667824  .00022172  00000-0  16191-3 0  9996","TLE_LINE2":"2 52627  53.2149 246.1902 0002399  24.9322 212.9767 15.73208328  1304","NORAD_CAT_ID":"52627","OBJECT_TYPE":"PAYLOAD","MEAN_MOTION_DDOT":"0.0000000000000"},{"APOAPSIS":"483.303","MEAN_MOTION_DOT":"-0.00841348","MEAN_ELEMENT_THEORY":"SGP4","COUNTRY_CODE":"US","PERIAPSIS":"481.513","EPOCH":"2022-06-22T22:00:00.999936","RA_OF_ASC_NODE":"251.0214","BSTAR":"-0.03315700000000","ELEMENT_SET_NO":"999","REF_FRAME":"TEME","MEAN_ANOMALY":"45.5601","LAUNCH_DATE":"2022-05-14","ARG_OF_PERICENTER":"65.9781","RCS_SIZE":"LARGE","OBJECT_NAME":"STARLINK-4001","CENTER_NAME":"EARTH","MEAN_MOTION":"15.27794828","PERIOD":"94.253","INCLINATION":"53.2174","ECCENTRICITY":"0.00013040","FILE":"3500001","CLASSIFICATION_TYPE":"U","REV_AT_EPOCH":"130","SEMIMAJOR_AXIS":"6860.543","DECAY_DATE":null,"OBJECT_ID":"2022-052AG","SITE":"AFETR","MEAN_MOTION_DDOT":"0.0000000000000","NORAD_CAT_ID":"52628","OBJECT_TYPE":"PAYLOAD","TLE_LINE1":"1 52628U 22052AG  22173.91667824 -.00841348  00000-0 -33157-1 0  9992","TLE_LINE2":"2 52628  53.2174 251.0214 0001304  65.9781  45.5601 15.27794828  1304","EPHEMERIS_TYPE":"0","GP_ID":"206651374","TIME_SYSTEM":"UTC"},{"RA_OF_ASC_NODE":"246.1888","BSTAR":"-0.00059467000000","MEAN_ANOMALY":"217.5944","ELEMENT_SET_NO":"999","REF_FRAME":"TEME","APOAPSIS":"351.040","MEAN_MOTION_DOT":"-0.00083482","MEAN_ELEMENT_THEORY":"SGP4","EPOCH":"2022-06-22T22:00:00.999936","COUNTRY_CODE":"US","PERIAPSIS":"348.133","INCLINATION":"53.2140","PERIOD":"91.530","ECCENTRICITY":"0.00021600","CLASSIFICATION_TYPE":"U","FILE":"3500001","LAUNCH_DATE":"2022-05-14","ARG_OF_PERICENTER":"20.9649","OBJECT_NAME":"STARLINK-4022","RCS_SIZE":"LARGE","MEAN_MOTION":"15.73260885","CENTER_NAME":"EARTH","SITE":"AFETR","REV_AT_EPOCH":"130","SEMIMAJOR_AXIS":"6727.722","DECAY_DATE":null,"OBJECT_ID":"2022-052AH","TLE_LINE1":"1 52629U 22052AH  22173.91667824 -.00083482  00000-0 -59467-3 0  9994","TLE_LINE2":"2 52629  53.2140 246.1888 0002160  20.9649 217.5944 15.73260885  1308","GP_ID":"206652006","EPHEMERIS_TYPE":"0","TIME_SYSTEM":"UTC","MEAN_MOTION_DDOT":"0.0000000000000","NORAD_CAT_ID":"52629","OBJECT_TYPE":"PAYLOAD"},{"OBJECT_ID":"2022-052AJ","DECAY_DATE":null,"SEMIMAJOR_AXIS":"6727.892","REV_AT_EPOCH":"130","SITE":"AFETR","OBJECT_TYPE":"PAYLOAD","NORAD_CAT_ID":"52630","MEAN_MOTION_DDOT":"0.0000000000000","TIME_SYSTEM":"UTC","EPHEMERIS_TYPE":"0","GP_ID":"206651269","TLE_LINE2":"2 52630  53.2132 246.1928 0002490  23.5847 213.1605 15.73200946  1309","TLE_LINE1":"1 52630U 22052AJ  22173.91667824  .00019408  00000-0  14237-3 0  9997","EPOCH":"2022-06-22T22:00:00.999936","COUNTRY_CODE":"US","PERIAPSIS":"348.082","MEAN_ELEMENT_THEORY":"SGP4","MEAN_MOTION_DOT":"0.00019408","APOAPSIS":"351.433","MEAN_ANOMALY":"213.1605","REF_FRAME":"TEME","ELEMENT_SET_NO":"999","RA_OF_ASC_NODE":"246.1928","BSTAR":"0.00014237000000","MEAN_MOTION":"15.73200946","CENTER_NAME":"EARTH","RCS_SIZE":"LARGE","OBJECT_NAME":"STARLINK-3989","ARG_OF_PERICENTER":"23.5847","LAUNCH_DATE":"2022-05-14","CLASSIFICATION_TYPE":"U","FILE":"3500001","ECCENTRICITY":"0.00024900","INCLINATION":"53.2132","PERIOD":"91.533"},{"MEAN_MOTION":"15.73233158","CENTER_NAME":"EARTH","RCS_SIZE":"LARGE","OBJECT_NAME":"STARLINK-3794","ARG_OF_PERICENTER":"17.3529","LAUNCH_DATE":"2022-05-14","FILE":"3500001","CLASSIFICATION_TYPE":"U","ECCENTRICITY":"0.00025190","INCLINATION":"53.2148","PERIOD":"91.531","EPOCH":"2022-06-22T22:00:00.999936","PERIAPSIS":"347.971","COUNTRY_CODE":"US","MEAN_ELEMENT_THEORY":"SGP4","MEAN_MOTION_DOT":"-0.00074870","APOAPSIS":"351.360","MEAN_ANOMALY":"222.4272","REF_FRAME":"TEME","ELEMENT_SET_NO":"999","RA_OF_ASC_NODE":"246.1861","BSTAR":"-0.00053292000000","OBJECT_TYPE":"PAYLOAD","NORAD_CAT_ID":"52631","MEAN_MOTION_DDOT":"0.0000000000000","TIME_SYSTEM":"UTC","EPHEMERIS_TYPE":"0","GP_ID":"206651827","TLE_LINE2":"2 52631  53.2148 246.1861 0002519  17.3529 222.4272 15.73233158  1307","TLE_LINE1":"1 52631U 22052AK  22173.91667824 -.00074870  00000-0 -53292-3 0  9998","OBJECT_ID":"2022-052AK","SEMIMAJOR_AXIS":"6727.801","DECAY_DATE":null,"REV_AT_EPOCH":"130","SITE":"AFETR"}];
